SENTINEL-6              
1 46984U 20086A   23364.88494248 -.00000054  00000+0  29079-4 0  9992
2 46984  66.0390 202.9118 0007648 269.4554  90.5585 12.80929603145147
